{
  "type": "FeatureCollection",
  "features": [
    {
      "type": "Feature",
      "properties": {
        "norad_id": 38867,
        "name": "INTELSAT 23 (IS-23)",
        "group": "intelsat",
        "lat": 0.005449294858075245,
        "lon": -148.38262612856818,
        "alt_km": 35786.91097942147,
        "timestamp": "2025-12-22T11:33:20.097097+00:00",
        "meta_object_name": "INTELSAT 23 (IS-23)",
        "meta_object_id": "2012-057A",
        "meta_epoch": "2025-12-22T02:38:31.084800",
        "meta_mean_motion": 1.00268945,
        "meta_eccentricity": 6.81e-05,
        "meta_inclination": 0.0199,
        "meta_ra_of_asc_node": 70.6955,
        "meta_arg_of_pericenter": 230.9591,
        "meta_mean_anomaly": 135.9115,
        "meta_ephemeris_type": 0,
        "meta_classification_type": "U",
        "meta_norad_cat_id": 38867,
        "meta_element_set_no": 999,
        "meta_rev_at_epoch": 4817,
        "meta_bstar": 0,
        "meta_mean_motion_dot": -2.63e-06,
        "meta_mean_motion_ddot": 0,
        "tle_line1": "1 38867U 12057A   25356.11008200 -.00000263  00000+0  00000+0 0  9990",
        "tle_line2": "2 38867   0.0199  70.6955 0000681 230.9591 135.9115  1.00268945 48179"
      },
      "geometry": {
        "type": "Point",
        "coordinates": [
          -148.38262612856818,
          0.005449294858075245
        ]
      }
    },
    {
      "type": "Feature",
      "properties": {
        "norad_id": 39360,
        "name": "FM-6",
        "group": "intelsat",
        "lat": 0.02414599715165422,
        "lon": 148.432814201583,
        "alt_km": 35775.95879350053,
        "timestamp": "2025-12-22T11:33:20.097108+00:00",
        "meta_object_name": "FM-6",
        "meta_object_id": "2013-058A",
        "meta_epoch": "2025-12-22T01:45:29.872224",
        "meta_mean_motion": 1.00269758,
        "meta_eccentricity": 0.0002905,
        "meta_inclination": 0.0111,
        "meta_ra_of_asc_node": 60.7431,
        "meta_arg_of_pericenter": 116.5751,
        "meta_mean_anomaly": 183.7792,
        "meta_ephemeris_type": 0,
        "meta_classification_type": "U",
        "meta_norad_cat_id": 39360,
        "meta_element_set_no": 999,
        "meta_rev_at_epoch": 4429,
        "meta_bstar": 0,
        "meta_mean_motion_dot": 5e-08,
        "meta_mean_motion_ddot": 0,
        "tle_line1": "1 39360U 13058A   25356.07326241  .00000005  00000+0  00000+0 0  9997",
        "tle_line2": "2 39360   0.0111  60.7431 0002905 116.5751 183.7792  1.00269758 44293"
      },
      "geometry": {
        "type": "Point",
        "coordinates": [
          148.432814201583,
          0.02414599715165422
        ]
      }
    },
    {
      "type": "Feature",
      "properties": {
        "norad_id": 40271,
        "name": "INTELSAT 30 (IS-30)",
        "group": "intelsat",
        "lat": 0.01633493715752718,
        "lon": 169.56423807949372,
        "alt_km": 35789.12424183967,
        "timestamp": "2025-12-22T11:33:20.097120+00:00",
        "meta_object_name": "INTELSAT 30 (IS-30)",
        "meta_object_id": "2014-062A",
        "meta_epoch": "2025-12-22T00:43:42.862944",
        "meta_mean_motion": 1.00262497,
        "meta_eccentricity": 0.0001564,
        "meta_inclination": 0.0115,
        "meta_ra_of_asc_node": 23.9271,
        "meta_arg_of_pericenter": 51.8075,
        "meta_mean_anomaly": 290.9843,
        "meta_ephemeris_type": 0,
        "meta_classification_type": "U",
        "meta_norad_cat_id": 40271,
        "meta_element_set_no": 999,
        "meta_rev_at_epoch": 501,
        "meta_bstar": 0,
        "meta_mean_motion_dot": -1.28e-06,
        "meta_mean_motion_ddot": 0,
        "tle_line1": "1 40271U 14062A   25356.03035721 -.00000128  00000+0  00000+0 0  9999",
        "tle_line2": "2 40271   0.0115  23.9271 0001564  51.8075 290.9843  1.00262497  5011"
      },
      "geometry": {
        "type": "Point",
        "coordinates": [
          169.56423807949372,
          0.01633493715752718
        ]
      }
    },
    {
      "type": "Feature",
      "properties": {
        "norad_id": 40333,
        "name": "DIRECTV 14",
        "group": "intelsat",
        "lat": -0.0013810613599755557,
        "lon": 165.3908455272235,
        "alt_km": 35785.4868004858,
        "timestamp": "2025-12-22T11:33:20.097131+00:00",
        "meta_object_name": "DIRECTV 14",
        "meta_object_id": "2014-078B",
        "meta_epoch": "2025-12-22T00:42:35.470080",
        "meta_mean_motion": 1.00270485,
        "meta_eccentricity": 2.77e-05,
        "meta_inclination": 0.0077,
        "meta_ra_of_asc_node": 317.8356,
        "meta_arg_of_pericenter": 174.1037,
        "meta_mean_anomaly": 230.3279,
        "meta_ephemeris_type": 0,
        "meta_classification_type": "U",
        "meta_norad_cat_id": 40333,
        "meta_element_set_no": 999,
        "meta_rev_at_epoch": 4026,
        "meta_bstar": 0,
        "meta_mean_motion_dot": -1.03e-06,
        "meta_mean_motion_ddot": 0,
        "tle_line1": "1 40333U 14078B   25356.02957720 -.00000103  00000+0  00000+0 0  9999",
        "tle_line2": "2 40333   0.0077 317.8356 0000277 174.1037 230.3279  1.00270485 40266"
      },
      "geometry": {
        "type": "Point",
        "coordinates": [
          165.3908455272235,
          -0.0013810613599755557
        ]
      }
    },
    {
      "type": "Feature",
      "properties": {
        "norad_id": 40663,
        "name": "DIRECTV 15",
        "group": "intelsat",
        "lat": 0.026845572302456287,
        "lon": 161.72925824010426,
        "alt_km": 35785.04063937303,
        "timestamp": "2025-12-22T11:33:20.097142+00:00",
        "meta_object_name": "DIRECTV 15",
        "meta_object_id": "2015-026A",
        "meta_epoch": "2025-12-22T00:41:35.567232",
        "meta_mean_motion": 1.00268896,
        "meta_eccentricity": 4.48e-05,
        "meta_inclination": 0.0242,
        "meta_ra_of_asc_node": 19.2315,
        "meta_arg_of_pericenter": 132.5309,
        "meta_mean_anomaly": 206.5963,
        "meta_ephemeris_type": 0,
        "meta_classification_type": "U",
        "meta_norad_cat_id": 40663,
        "meta_element_set_no": 999,
        "meta_rev_at_epoch": 3868,
        "meta_bstar": 0,
        "meta_mean_motion_dot": 0,
        "meta_mean_motion_ddot": 0,
        "tle_line1": "1 40663U 15026A   25356.02888388  .00000000  00000+0  00000+0 0  9997",
        "tle_line2": "2 40663   0.0242  19.2315 0000448 132.5309 206.5963  1.00268896 38685"
      },
      "geometry": {
        "type": "Point",
        "coordinates": [
          161.72925824010426,
          0.026845572302456287
        ]
      }
    },
    {
      "type": "Feature",
      "properties": {
        "norad_id": 40664,
        "name": "SKY MEXICO-1",
        "group": "intelsat",
        "lat": -0.0029348046531487235,
        "lon": -174.17552818222475,
        "alt_km": 35788.289909933854,
        "timestamp": "2025-12-22T11:33:20.097154+00:00",
        "meta_object_name": "SKY MEXICO-1",
        "meta_object_id": "2015-026B",
        "meta_epoch": "2025-12-22T01:43:32.693088",
        "meta_mean_motion": 1.00271315,
        "meta_eccentricity": 0.0002373,
        "meta_inclination": 0.0147,
        "meta_ra_of_asc_node": 359.445,
        "meta_arg_of_pericenter": 288.2407,
        "meta_mean_anomaly": 110.3225,
        "meta_ephemeris_type": 0,
        "meta_classification_type": "U",
        "meta_norad_cat_id": 40664,
        "meta_element_set_no": 999,
        "meta_rev_at_epoch": 3867,
        "meta_bstar": 0,
        "meta_mean_motion_dot": -2.12e-06,
        "meta_mean_motion_ddot": 0,
        "tle_line1": "1 40664U 15026B   25356.07190617 -.00000212  00000+0  00000+0 0  9990",
        "tle_line2": "2 40664   0.0147 359.4450 0002373 288.2407 110.3225  1.00271315 38678"
      },
      "geometry": {
        "type": "Point",
        "coordinates": [
          -174.17552818222475,
          -0.0029348046531487235
        ]
      }
    },
    {
      "type": "Feature",
      "properties": {
        "norad_id": 40874,
        "name": "INTELSAT 34 (IS-34)",
        "group": "intelsat",
        "lat": -0.021308171278352512,
        "lon": -150.87746207803747,
        "alt_km": 35783.92836774871,
        "timestamp": "2025-12-22T11:33:20.097166+00:00",
        "meta_object_name": "INTELSAT 34 (IS-34)",
        "meta_object_id": "2015-039A",
        "meta_epoch": "2025-12-21T19:46:55.848000",
        "meta_mean_motion": 1.00270951,
        "meta_eccentricity": 8.41e-05,
        "meta_inclination": 0.0124,
        "meta_ra_of_asc_node": 314.731,
        "meta_arg_of_pericenter": 208.8293,
        "meta_mean_anomaly": 168.3161,
        "meta_ephemeris_type": 0,
        "meta_classification_type": "U",
        "meta_norad_cat_id": 40874,
        "meta_element_set_no": 999,
        "meta_rev_at_epoch": 3784,
        "meta_bstar": 0,
        "meta_mean_motion_dot": -2.63e-06,
        "meta_mean_motion_ddot": 0,
        "tle_line1": "1 40874U 15039A   25355.82425750 -.00000263  00000+0  00000+0 0  9994",
        "tle_line2": "2 40874   0.0124 314.7310 0000841 208.8293 168.3161  1.00270951 37849"
      },
      "geometry": {
        "type": "Point",
        "coordinates": [
          -150.87746207803747,
          -0.021308171278352512
        ]
      }
    }
  ]
}